0 FALCON 9 DEB
1 39282U 13055R   13272.73607350  .00000040  00000-0  00000+0 0    11
2 39282 080.9974 315.1204 0842506 169.4264 302.0242 13.83640861    09
0 FALCON 9 DEB
1 39282U 13055R   13273.44133269  .06778549  00000-0  30149+0 0    45
2 39282 080.9261 314.4843 0801147 163.0867 219.8565 13.87620461   106
0 FALCON 9 DEB
1 39282U 13055R   13273.65424497  .07435275  00000-0  32530+0 0    25
2 39282 080.9303 314.2703 0788480 162.4089 204.5844 13.90407242   137
0 FALCON 9 DEB
1 39282U 13055R   13273.74583883  .07514480  00000-0  32438+0 0    34
2 39282 080.9276 314.1820 0784171 162.1238 303.2611 13.91596395   140
0 FALCON 9 DEB
1 39282U 13055R   13273.79729735  .07565259  00000-0  32477+0 0    52
2 39282 080.9240 314.1291 0781467 162.1235 200.9910 13.92271901   155
0 FALCON 9 DEB
1 39282U 13055R   13273.86912536  .07615162  00000-0  32391+0 0    68
2 39282 080.9205 314.0620 0777740 161.9321 201.1244 13.93248164   163
0 FALCON 9 DEB
1 39282U 13055R   13274.22761253  .07719278  00000-0  31967+0 0    79
2 39282 080.9175 313.7111 0757512 161.0642 202.0384 13.98036184   215
0 FALCON 9 DEB
1 39282U 13055R   13274.37067563  .07726525  00000-0  32491+0 0    85
2 39282 080.9169 313.5664 0746595 160.6480 202.4327 13.99904572   232
0 FALCON 9 DEB
1 39282U 13055R   13274.65617355  .07195675  00000-0  29251+0 0    93
2 39282 080.9038 313.2695 0735513 159.6610 202.9511 14.03209919   261
0 FALCON 9 DEB
1 39282U 13055R   13275.08326338  .06716896  00000-0  27580+0 0   107
2 39282 080.9050 312.8538 0712141 158.5147 203.7881 14.07944416   330
0 FALCON 9 DEB
1 39282U 13055R   13275.15450042  .06703614  00000-0  27502+0 0   114
2 39282 080.9131 312.7848 0708525 158.3163 204.8897 14.08712575   340
0 FALCON 9 DEB
1 39282U 13055R   13275.36740308  .06738529  00000-0  26303+0 0   126
2 39282 080.9152 312.5656 0702570 157.7677 205.4551 14.11146051   376
0 FALCON 9 DEB
1 39282U 13055R   13275.65069359  .12443427  00000-0  45911+0 0   132
2 39282 080.9108 312.2619 0672930 156.6948 208.6683 14.17766263   413
0 FALCON 9 DEB
1 39282U 13055R   13276.28207864  .09526940  00000-0  33623+0 0   143
2 39282 080.8991 311.6087 0625711 155.5131 203.2312 14.28826725   503
0 FALCON 9 DEB
1 39282U 13055R   13276.56258227  .08616100  00000-0  29324+0 0   165
2 39282 080.8930 311.3230 0609222 154.6190 208.1583 14.32873375   543
0 FALCON 9 DEB
1 39282U 13055R   13277.39661863  .06794387  00000-0  21798+0 0   171
2 39282 080.8845 310.4345 0570197 152.0520 205.0261 14.42476378   656
0 FALCON 9 DEB
1 39282U 13055R   13277.81326571  .06512696  00000-0  20337+0 0   182
2 39282 080.8802 309.9839 0551796 150.7580 211.9624 14.46985434   713
0 FALCON 9 DEB
1 39282U 13055R   13278.50286724  .05789474  00000-0  17423+0 0   196
2 39282 080.8775 309.2366 0524687 148.6640 212.3230 14.53690248   815
0 FALCON 9 DEB
1 39282U 13055R   13279.87242884  .07285412  00000-0  19636+0 0   201
2 39282 080.8720 307.7285 0465495 144.3948 212.2019 14.67996700  1017
0 FALCON 9 DEB
1 39282U 13055R   13280.55310493  .08378857  00000-0  20007+0 0   212
2 39282 080.8680 306.9655 0431850 142.2798 220.4397 14.77131873  1127
0 FALCON 9 DEB
1 39282U 13055R   13280.62091550  .08523340  00000-0  20333+0 0   222
2 39282 080.8694 306.9025 0426951 141.9478 221.1849 14.78044507  1139
0 FALCON 9 DEB
1 39282U 13055R   13281.49668204  .14356362  00000-0  29156+0 0   232
2 39282 080.8664 305.8836 0371589 139.7169 219.6595 14.92545730  1266
0 FALCON 9 DEB
1 39282U 13055R   13281.83152271  .18572477  00000-0  34261+0 0   247
2 39282 080.8597 305.5103 0333741 138.7067 223.9045 15.01616299  1313
